0 COSMOS 1275 DEB
1 12947U 81053EB  13281.88013794  .00000555  00000-0  86206-3 0  6576
2 12947 083.0971 058.4980 0207914 216.1294 267.8648 13.41143176559488
0 COSMOS 1275 DEB
1 12947U 81053EB  13283.89521676  .00000590  00000-0  91655-3 0  6586
2 12947 083.0974 057.1186 0208051 210.8111 276.8965 13.41146207559757
0 COSMOS 1275 DEB
1 12947U 81053EB  13286.33649297  .00000520  00000-0  80528-3 0  6599
2 12947 083.0980 055.4479 0208222 204.3729 183.6789 13.41148879560087
0 COSMOS 1275 DEB
1 12947U 81053EB  13289.11619509  .00000607  00000-0  94341-3 0  6607
2 12947 083.0986 053.5458 0208372 197.0531 284.4410 13.41152430560454
0 COSMOS 1275 DEB
1 12947U 81053EB  13291.12974778  .00000620  00000-0  96334-3 0  6613
2 12947 083.0987 052.1683 0208471 191.7384 286.1712 13.41155462560729
0 COSMOS 1275 DEB
1 12947U 81053EB  13293.35509689  .00000635  00000-0  98646-3 0  6620
2 12947 083.0994 050.6469 0208491 185.8446 230.5186 13.41157474561024
0 COSMOS 1275 DEB
1 12947U 81053EB  13295.36965811  .00000632  00000-0  98105-3 0  6634
2 12947 083.0999 049.2693 0208592 180.5430 237.1337 13.41159988561291
